[
    {
        "address": "Albert Pier Pontoons",
        "parish": "St Helier",
        "postCode": "JE2 3NE",
        "padNumber": 31,
        "latitude": 49.179938,
        "longitude": -2.113384,
        "notes": ""
    },
    {
        "address": "Andium Homes",
        "parish": "St Helier",
        "postCode": "JE2 4TR",
        "padNumber": 40,
        "latitude": 49.185551,
        "longitude": -2.10559,
        "notes": ""
    },
    {
        "address": "Assured Property Management, Castle Quay",
        "parish": "St Helier",
        "postCode": "JE2 3EA",
        "padNumber": "",
        "latitude": 49.18367,
        "longitude": -2.10981,
        "notes": ""
    },
    {
        "address": "Barette Commercial Centre, Mont Mado",
        "parish": "St John",
        "postCode": "JE3 4DS",
        "padNumber": 33,
        "latitude": 49.244619,
        "longitude": -2.124343,
        "notes": ""
    },
    {
        "address": "Beresford Street Kitchen",
        "parish": "St Helier",
        "postCode": "JE2 4WN",
        "padNumber": "",
        "latitude": 49.18533,
        "longitude": -2.10324,
        "notes": ""
    },
    {
        "address": "Building Renovations Ltd",
        "parish": "St Helier",
        "postCode": "JE2 3YA",
        "padNumber": "",
        "latitude": 49.18754,
        "longitude": -2.10688,
        "notes": ""
    },
    {
        "address": "CO-OP Locale Beaumont",
        "parish": "St Peter",
        "postCode": "JE3 7BQ",
        "padNumber": 15,
        "latitude": 49.197356,
        "longitude": -2.159341,
        "notes": ""
    },
    {
        "address": "CO-OP Locale Charring Cross",
        "parish": "St Helier",
        "postCode": "JE2 3RP",
        "padNumber": "",
        "latitude": 49.18527,
        "longitude": -2.10902,
        "notes": ""
    },
    {
        "address": "CO-OP Locale Georgetown",
        "parish": "St Saviour",
        "postCode": "JE2 7GP",
        "padNumber": 12,
        "latitude": 49.17917,
        "longitude": -2.09458,
        "notes": ""
    },
    {
        "address": "CO-OP Locale Grouville",
        "parish": "Grouville",
        "postCode": "JE3 9DX",
        "padNumber": 18,
        "latitude": 49.188777,
        "longitude": -2.040384,
        "notes": ""
    },
    {
        "address": "CO-OP Locale Maufant",
        "parish": "St Saviour",
        "postCode": "JE2 7GT",
        "padNumber": 11,
        "latitude": 49.210181,
        "longitude": -2.061204,
        "notes": ""
    },
    {
        "address": "CO-OP Locale Pontac",
        "parish": "St Clement",
        "postCode": "JE2 6FU",
        "padNumber": 13,
        "latitude": 49.169641,
        "longitude": -2.048909,
        "notes": ""
    },
    {
        "address": "CO-OP Locale Sion",
        "parish": "St John",
        "postCode": "JE3 4FL",
        "padNumber": 10,
        "latitude": 49.221126,
        "longitude": -2.114217,
        "notes": ""
    },
    {
        "address": "CO-OP Locale St Brelade",
        "parish": "St Brelade",
        "postCode": "JE3 8LL",
        "padNumber": 23,
        "latitude": 49.191214,
        "longitude": -2.199781,
        "notes": ""
    },
    {
        "address": "CO-OP Locale Travelmaker",
        "parish": "St Helier",
        "postCode": "JE2 4TR",
        "padNumber": 17,
        "latitude": 49.186405,
        "longitude": -2.105342,
        "notes": ""
    },
    {
        "address": "CO-OP Locale Val Plaisant",
        "parish": "St Helier",
        "postCode": "JE24TB",
        "padNumber": 16,
        "latitude": 49.191847,
        "longitude": -2.102115,
        "notes": ""
    },
    {
        "address": "D'Auvergne School",
        "parish": "St Helier",
        "postCode": "JE2 3GF",
        "padNumber": 42,
        "latitude": 49.197715,
        "longitude": -2.10926,
        "notes": ""
    },
    {
        "address": "Driftwood Café",
        "parish": "St Martin",
        "postCode": "JE3 6DY",
        "padNumber": "",
        "latitude": 49.2117,
        "longitude": -2.02494,
        "notes": ""
    },
    {
        "address": "Driver and Vehicle Standards Department",
        "parish": "St Helier",
        "postCode": "JE2 3NX",
        "padNumber": "",
        "latitude": "",
        "longitude": "",
        "notes": ""
    },
    {
        "address": "Elizabeth Terminal",
        "parish": "St Helier",
        "postCode": "JE2 3NW",
        "padNumber": 28,
        "latitude": 49.179687,
        "longitude": -2.116429,
        "notes": ""
    },
    {
        "address": "Farmers Cricket Club",
        "parish": "St Martin",
        "postCode": "JE3 6HY",
        "padNumber": "",
        "latitude": "",
        "longitude": "",
        "notes": ""
    },
    {
        "address": "FB Playing Fields",
        "parish": "St Clement",
        "postCode": "JE2 6QN",
        "padNumber": 21,
        "latitude": 49.17401,
        "longitude": -2.085382,
        "notes": ""
    },
    {
        "address": "First Medical, New Era",
        "parish": "St Clement",
        "postCode": "JE2 6QG",
        "padNumber": 19,
        "latitude": 49.17401,
        "longitude": -2.085382,
        "notes": "Formerly co-op medical care"
    },
    {
        "address": "Grainville School Playing Fields",
        "parish": "St Saviour",
        "postCode": "JE2 7LB",
        "padNumber": 22,
        "latitude": 49.197718,
        "longitude": -2.088143,
        "notes": ""
    },
    {
        "address": "Grande Marche St Helier",
        "parish": "St Helier",
        "postCode": "JE2 4LZ",
        "padNumber": 8,
        "latitude": 49.188649,
        "longitude": -2.098934,
        "notes": ""
    },
    {
        "address": "Grande Marche",
        "parish": "St Peter",
        "postCode": "JE3 7AG",
        "padNumber": 9,
        "latitude": 49.212405,
        "longitude": -2.182296,
        "notes": ""
    },
    {
        "address": "Granite Products",
        "parish": "St Peter",
        "postCode": "JE3 7EY",
        "padNumber": "",
        "latitude": "",
        "longitude": "",
        "notes": ""
    },
    {
        "address": "Grouville Football Club",
        "parish": "Grouville",
        "postCode": "JE3 9DP",
        "padNumber": "",
        "latitude": "",
        "longitude": "",
        "notes": ""
    },
    {
        "address": "Islands Insurance",
        "parish": "St Helier",
        "postCode": "JE2 3QB",
        "padNumber": 25,
        "latitude": 49.186173,
        "longitude": -2.114067,
        "notes": ""
    },
    {
        "address": "JEC La Collette Power Station",
        "parish": "St Helier",
        "postCode": "JE2 3NX",
        "padNumber": 6,
        "latitude": 49.174691,
        "longitude": -2.108997,
        "notes": ""
    },
    {
        "address": "JEC Power House",
        "parish": "St Helier",
        "postCode": "JE2 3WJ",
        "padNumber": 5,
        "latitude": 49.200276,
        "longitude": -2.114184,
        "notes": ""
    },
    {
        "address": "Jersey Airport (Departures)",
        "parish": "St Peter",
        "postCode": "JE1 1BY",
        "padNumber": 24,
        "latitude": 49.205168,
        "longitude": -2.194791,
        "notes": ""
    },
    {
        "address": "Jersey Amateur Dramatic Club (The Barn)",
        "parish": "St Saviour",
        "postCode": "JE2 7JQ",
        "padNumber": "",
        "latitude": "",
        "longitude": "",
        "notes": ""
    },
    {
        "address": "Jersey Arts Centre",
        "parish": "St Helier",
        "postCode": "JE2 4SW",
        "padNumber": 34,
        "latitude": 49.186071,
        "longitude": -2.101296,
        "notes": ""
    },
    {
        "address": "Jersey Dairy",
        "parish": "Trinity",
        "postCode": "JE3 5JP",
        "padNumber": 39,
        "latitude": 49.232294,
        "longitude": -2.095484,
        "notes": ""
    },
    {
        "address": "Jersey Rifle Association Clubhouse",
        "parish": "St Mary",
        "postCode": "JE3 6AD",
        "padNumber": 36,
        "latitude": 49.24351,
        "longitude": -2.188987,
        "notes": ""
    },
    {
        "address": "Jersey Rugby Club",
        "parish": "St Peter",
        "postCode": "JE3 7BG",
        "padNumber": 35,
        "latitude": 49.205227,
        "longitude": -2.182193,
        "notes": ""
    },
    {
        "address": "Jersey Scout Association",
        "parish": "St Ouen",
        "postCode": "JE3 2FN",
        "padNumber": 41,
        "latitude": 49.228215,
        "longitude": -2.231105,
        "notes": ""
    },
    {
        "address": "Les Amis",
        "parish": "St Saviour",
        "postCode": "JE2 7GS",
        "padNumber": "",
        "latitude": "",
        "longitude": "",
        "notes": ""
    },
    {
        "address": "Les Mielles Golf and Country Club",
        "parish": "St Ouen",
        "postCode": "JE3 7FQ",
        "padNumber": 44,
        "latitude": 49.209707,
        "longitude": -2.21917,
        "notes": ""
    },
    {
        "address": "Les Ormes Leisure Centre",
        "parish": "St Brelade",
        "postCode": "JE3 8FL",
        "padNumber": "",
        "latitude": "",
        "longitude": "",
        "notes": ""
    },
    {
        "address": "Les Quennevais Playing Fields",
        "parish": "St Brelade",
        "postCode": "JE3 8LZ",
        "padNumber": 20,
        "latitude": 49.195011,
        "longitude": -2.205,
        "notes": ""
    },
    {
        "address": "Liberation Bus Station Building",
        "parish": "St Helier",
        "postCode": "JE2 3AS",
        "padNumber": "",
        "latitude": "",
        "longitude": "",
        "notes": ""
    },
    {
        "address": "Maison Victor Hugo",
        "parish": "St Clement",
        "postCode": "JE2 6PW",
        "padNumber": "",
        "latitude": "",
        "longitude": "",
        "notes": ""
    },
    {
        "address": "Morier House",
        "parish": "St Helier",
        "postCode": "JE2 4GH",
        "padNumber": 1,
        "latitude": 49.183754,
        "longitude": -2.104754,
        "notes": ""
    },
    {
        "address": "Normans Ltd",
        "parish": "St Helier",
        "postCode": "JE2 3NB",
        "padNumber": "",
        "latitude": "",
        "longitude": "",
        "notes": ""
    },
    {
        "address": "Police HQ",
        "parish": "St Helier",
        "postCode": "JE2 4PA",
        "padNumber": "",
        "latitude": "",
        "longitude": "",
        "notes": ""
    },
    {
        "address": "Public Toilets Bouley Bay",
        "parish": "Trinity",
        "postCode": "JE3 5AS",
        "padNumber": "",
        "latitude": "",
        "longitude": "",
        "notes": "Ladies side"
    },
    {
        "address": "Ronez Quarry",
        "parish": "St John",
        "postCode": "JE3 4AR",
        "padNumber": 26,
        "latitude": 49.257045,
        "longitude": -2.150798,
        "notes": ""
    },
    {
        "address": "Rozel Pier / Harbour",
        "parish": "Trinity",
        "postCode": "JE3 5BN",
        "padNumber": 32,
        "latitude": 49.237913,
        "longitude": -2.044657,
        "notes": ""
    },
    {
        "address": "Rozel Rovers Football Club",
        "parish": "St Lawrence",
        "postCode": "JE3 1ND",
        "padNumber": "",
        "latitude": "",
        "longitude": "",
        "notes": ""
    },
    {
        "address": "Seale Street Changing Places",
        "parish": "St Helier",
        "postCode": "JE2 3QG",
        "padNumber": "",
        "latitude": "",
        "longitude": "",
        "notes": ""
    },
    {
        "address": "St Andrew’s Church",
        "parish": "St Helier",
        "postCode": "JE2 3JA",
        "padNumber": "",
        "latitude": "",
        "longitude": "",
        "notes": ""
    },
    {
        "address": "St Bernadette’s Church",
        "parish": "St Brelade",
        "postCode": "JE3 8LJ",
        "padNumber": "",
        "latitude": "",
        "longitude": "",
        "notes": ""
    },
    {
        "address": "St Brelade Parish Hall",
        "parish": "St Brelade",
        "postCode": "JE3 8BS",
        "padNumber": 14,
        "latitude": 49.187777,
        "longitude": -2.169995,
        "notes": ""
    },
    {
        "address": "St Catherine’s",
        "parish": "St Martin",
        "postCode": "JE3 6DD",
        "padNumber": 46,
        "latitude": 49.224548,
        "longitude": -2.020067,
        "notes": "Next to Café"
    },
    {
        "address": "St Clement Golf Centre",
        "parish": "St Clement",
        "postCode": "JE2 6PN",
        "padNumber": "",
        "latitude": "",
        "longitude": "",
        "notes": ""
    },
    {
        "address": "St Clement Parish Hall",
        "parish": "St Clement",
        "postCode": "JE2 6FP",
        "padNumber": "",
        "latitude": "",
        "longitude": "",
        "notes": ""
    },
    {
        "address": "St Helier Marina",
        "parish": "St Helier",
        "postCode": "JE2 3ND",
        "padNumber": 37,
        "latitude": 49.181438,
        "longitude": -2.110324,
        "notes": ""
    },
    {
        "address": "St Helier Marina (Ramp)",
        "parish": "St Helier",
        "postCode": "JE2 3ND",
        "padNumber": 43,
        "latitude": 49.181447,
        "longitude": -2.110365,
        "notes": ""
    },
    {
        "address": "St John Ambulance St Martin",
        "parish": "St Martin",
        "postCode": "JE3 6JR",
        "padNumber": 3,
        "latitude": 49.217829,
        "longitude": -2.053039,
        "notes": ""
    },
    {
        "address": "St John Ambulance HQ",
        "parish": "St Helier",
        "postCode": "JE2 3YR",
        "padNumber": 2,
        "latitude": 49.187533,
        "longitude": -2.106858,
        "notes": ""
    },
    {
        "address": "St John Ambulance YKJ",
        "parish": "St John",
        "postCode": "JE3 4EJ",
        "padNumber": 7,
        "latitude": 49.243254,
        "longitude": -2.118271,
        "notes": ""
    },
    {
        "address": "St Martin Parish Hall",
        "parish": "St Martin",
        "postCode": "JE3 6HW",
        "padNumber": 30,
        "latitude": 49.214425,
        "longitude": -2.062086,
        "notes": ""
    },
    {
        "address": "St Martin’s Public Hall",
        "parish": "St Martin",
        "postCode": "JE3 6HW",
        "padNumber": 4,
        "latitude": 49.215186,
        "longitude": -2.062468,
        "notes": ""
    },
    {
        "address": "St Mary Parish Hall",
        "parish": "St Mary",
        "postCode": "JE3 3AS",
        "padNumber": "",
        "latitude": "",
        "longitude": "",
        "notes": ""
    },
    {
        "address": "St Ouen Parish Hall",
        "parish": "St Ouen",
        "postCode": "JE3 2HY",
        "padNumber": "",
        "latitude": "",
        "longitude": "",
        "notes": ""
    },
    {
        "address": "St Peter Parish Hall",
        "parish": "St Peter",
        "postCode": "JE3 7AH",
        "padNumber": "",
        "latitude": "",
        "longitude": "",
        "notes": ""
    },
    {
        "address": "St Saviour Parish Hall",
        "parish": "St Saviour",
        "postCode": "JE2 7LF",
        "padNumber": 38,
        "latitude": 49.191157,
        "longitude": -2.081004,
        "notes": ""
    },
    {
        "address": "The Bridge – Liberation Pub",
        "parish": "St Helier",
        "postCode": "JE2 3NP",
        "padNumber": "",
        "latitude": "",
        "longitude": "",
        "notes": ""
    },
    {
        "address": "The Forum",
        "parish": "St Helier",
        "postCode": "JE2 4WP",
        "padNumber": "",
        "latitude": 49.188234,
        "longitude": -2.103034,
        "notes": ""
    },
    {
        "address": "The Radisson Hotel",
        "parish": "St Helier",
        "postCode": "JE2 3WF",
        "padNumber": "",
        "latitude": 49.183906,
        "longitude": -2.111112,
        "notes": ""
    },
    {
        "address": "The Royal Yacht",
        "parish": "St Helier",
        "postCode": "JE2 3NF",
        "padNumber": 27,
        "latitude": 49.182898,
        "longitude": -2.108694,
        "notes": ""
    },
    {
        "address": "Trinity Arms",
        "parish": "Trinity",
        "postCode": "JE3 5JB",
        "padNumber": 29,
        "latitude": 49.235045,
        "longitude": -2.082551,
        "notes": ""
    },
    {
        "address": "Western Fire Station",
        "parish": "St Brelade",
        "postCode": "JE3 8BS",
        "padNumber": "",
        "latitude": "",
        "longitude": "",
        "notes": ""
    }
]
